NORAD_CAT_ID,OBJECT_NAME,OBJECT_TYPE,EPOCH,MEAN_MOTION,ECCENTRICITY,INCLINATION,RA_OF_ASC_NODE,ARG_OF_PERICENTER,MEAN_ANOMALY,BSTAR,MEAN_MOTION_DOT,MEAN_MOTION_DDOT,TLE_LINE0,TLE_LINE1,TLE_LINE2,SEMIMAJOR_AXIS,PERIOD,APOGEE,PERIGEE,DECAYED
51855.0,STARLINK-3545,PAYLOAD,2024-08-12 23:54:59,15.0887662,0.0001009,53.2178,74.4504,95.1989,264.9118,0.0012321,0.00019395,0.0,0 STARLINK-3545,1 51855U 22022D   24225.99652102  .00019395  00000-0  12321-2 0  9999,2 51855  53.2178  74.4504 0001009  95.1989 264.9118 15.08876620136360,6917.768,95.435,540.331,538.935,0.0
51855.0,STARLINK-3545,PAYLOAD,2024-08-13 14:13:29,15.08809027,0.0001503,53.2191,71.7749,93.0024,267.114,-0.00061962,-0.00010127,0.0,0 STARLINK-3545,1 51855U 22022D   24226.59270350 -.00010127  00000-0 -61962-3 0  9999,2 51855  53.2191  71.7749 0001503  93.0024 267.1140 15.08809027136459,6917.975,95.44,540.88,538.8,0.0
51855.0,STARLINK-3545,PAYLOAD,2024-08-13 20:35:02,15.08798054,9.06e-05,53.2204,70.5865,87.6326,272.477,-0.00056783,-9.303e-05,0.0,0 STARLINK-3545,1 51855U 22022D   24226.85767242 -.00009303  00000-0 -56783-3 0  9998,2 51855  53.2204  70.5865 0000906  87.6326 272.4770 15.08798054136499,6918.009,95.44,540.5,539.247,0.0
51855.0,STARLINK-3545,PAYLOAD,2024-08-14 06:07:21,15.0882673,0.0001044,53.2181,68.8023,96.3922,263.7189,0.00025917,3.838e-05,0.0,0 STARLINK-3545,1 51855U 22022D   24227.25511128  .00003838  00000-0  25917-3 0  9993,2 51855  53.2181  68.8023 0001044  96.3922 263.7189 15.08826730136559,6917.921,95.438,540.508,539.064,0.0
51855.0,STARLINK-3545,PAYLOAD,2024-08-14 20:25:49,15.08845161,0.0001421,53.216,66.1245,78.2501,281.865,0.0007258,0.00011284,0.0,0 STARLINK-3545,1 51855U 22022D   24227.85126908  .00011284  00000-0  72580-3 0  9999,2 51855  53.2160  66.1245 0001421  78.2501 281.8650 15.08845161136647,6917.865,95.437,540.713,538.747,0.0
51855.0,STARLINK-3545,PAYLOAD,2024-08-14 22:01:13,15.08845909,0.0001812,53.2169,65.8272,86.7673,273.3527,0.00131,0.00020626,0.0,0 STARLINK-3545,1 51855U 22022D   24227.91751349  .00020626  00000-0  13100-2 0  9991,2 51855  53.2169  65.8272 0001812  86.7673 273.3527 15.08845909136650,6917.862,95.437,540.981,538.474,0.0
51855.0,STARLINK-3545,PAYLOAD,2024-08-16 05:48:54,15.08854145,0.0001651,53.2172,59.8811,92.2874,267.8307,0.00010928,1.452e-05,0.0,0 STARLINK-3545,1 51855U 22022D   24229.24230182  .00001452  00000-0  10928-3 0  9998,2 51855  53.2172  59.8811 0001651  92.2874 267.8307 15.08854145136850,6917.837,95.437,540.844,538.56,0.0
51855.0,STARLINK-3545,PAYLOAD,2024-08-17 12:01:14,15.08832228,0.0001335,53.2164,54.2329,70.255,289.8586,-0.00051777,-8.517e-05,0.0,0 STARLINK-3545,1 51855U 22022D   24230.50086712 -.00008517  00000-0 -51777-3 0  9995,2 51855  53.2164  54.2329 0001335  70.2550 289.8586 15.08832228137043,6917.904,95.438,540.693,538.846,0.0
51855.0,STARLINK-3545,PAYLOAD,2024-08-18 18:13:35,15.08831203,0.0001707,53.2171,48.5818,57.2948,302.8209,0.00087879,0.00013722,0.0,0 STARLINK-3545,1 51855U 22022D   24231.75943349  .00013722  00000-0  87879-3 0  9995,2 51855  53.2171  48.5818 0001707  57.2948 302.8209 15.08831203137230,6917.907,95.438,540.953,538.591,0.0
51855.0,STARLINK-3545,PAYLOAD,2024-08-19 10:07:25,15.08860639,0.0001822,53.2178,45.6073,52.138,307.9777,1.2645e-05,-8.7e-07,0.0,0 STARLINK-3545,1 51855U 22022D   24232.42182420 -.00000087  00000-0  12645-4 0  9996,2 51855  53.2178  45.6073 0001822  52.1380 307.9777 15.08860639137332,6917.817,95.436,540.943,538.422,0.0
51855.0,STARLINK-3545,PAYLOAD,2024-08-19 21:15:08,15.0884344,0.0002087,53.2177,43.5283,50.5152,309.6025,0.0004154,6.33e-05,0.0,0 STARLINK-3545,1 51855U 22022D   24232.88551379  .00006330  00000-0  41540-3 0  9990,2 51855  53.2177  43.5283 0002087  50.5152 309.6025 15.08843440137408,6917.87,95.437,541.179,538.291,0.0
51855.0,STARLINK-3545,PAYLOAD,2024-08-20 14:44:22,15.08832946,0.0001776,53.2168,40.2505,87.9192,272.2003,0.00038473,5.839e-05,0.0,0 STARLINK-3545,1 51855U 22022D   24233.61415350  .00005839  00000-0  38473-3 0  9994,2 51855  53.2168  40.2505 0001776  87.9192 272.2003 15.08832946137513,6917.902,95.438,540.996,538.538,0.0
51855.0,STARLINK-3545,PAYLOAD,2024-08-20 22:41:17,15.08856624,0.0001546,53.2188,38.7657,76.8083,283.3081,-1.8054e-05,-5.75e-06,0.0,0 STARLINK-3545,1 51855U 22022D   24233.94533953 -.00000575  00000-0 -18054-4 0  9998,2 51855  53.2188  38.7657 0001546  76.8083 283.3081 15.08856624137569,6917.83,95.437,540.764,538.625,0.0
51855.0,STARLINK-3545,PAYLOAD,2024-08-21 11:24:23,15.08843029,0.0001974,53.2178,36.3848,79.0488,281.0726,9.9899e-06,-1.29e-06,0.0,0 STARLINK-3545,1 51855U 22022D   24234.47526671 -.00000129  00000-0  99899-5 0  9997,2 51855  53.2178  36.3848 0001974  79.0488 281.0726 15.08843029137648,6917.871,95.437,541.102,538.371,0.0
51855.0,STARLINK-3545,PAYLOAD,2024-08-21 14:35:09,15.08844225,0.0001548,53.2175,35.7907,89.924,270.193,2.0787e-05,4.3e-07,0.0,0 STARLINK-3545,1 51855U 22022D   24234.60774440  .00000043  00000-0  20787-4 0  9994,2 51855  53.2175  35.7907 0001548  89.9240 270.1930 15.08844225137664,6917.867,95.437,540.803,538.662,0.0
51855.0,STARLINK-3545,PAYLOAD,2024-08-21 17:45:55,15.08844171,0.0001882,53.218,35.2002,70.6041,289.5154,4.9193e-05,4.95e-06,0.0,0 STARLINK-3545,1 51855U 22022D   24234.74022500  .00000495  00000-0  49193-4 0  9995,2 51855  53.2180  35.2002 0001882  70.6041 289.5154 15.08844171137682,6917.868,95.437,541.035,538.431,0.0
